COSMOS 2425 (716)       
1 29670U 06062A   21140.56683003 -.00000006  00000-0  00000+0 0  9993
2 29670  64.8505 256.3900 0023843 345.6389  10.2977  2.13115408112079
COSMOS 2433 (720)       
1 32275U 07052A   21140.57757519 -.00000052  00000-0  00000-0 0  9995
2 32275  66.0551  17.7084 0001199 289.0703 250.2048  2.13104497105592
COSMOS 2432 (719)       
1 32276U 07052B   21140.56678464 -.00000052  00000-0  00000+0 0  9995
2 32276  66.0697  17.8054 0010786 337.8006 142.5455  2.13103565105592
COSMOS 2434 (721)       
1 32393U 07065A   21140.48372762 -.00000005  00000-0  00000-0 0  9991
2 32393  64.4693 254.8631 0003701  93.5475 262.0376  2.13103120104292
COSMOS 2436 (723)       
1 32395U 07065C   21141.07309828 -.00000008  00000-0  00000+0 0  9994
2 32395  64.4785 254.8957 0014580   3.2701 220.5751  2.13103088104248
COSMOS 2456 (730)       
1 36111U 09070A   21140.27567800  .00000110  00000-0  00000-0 0  9993
2 36111  64.2739 134.5494 0006283 303.9581  62.9304  2.13099297 88960
COSMOS 2457 (733)       
1 36112U 09070B   21140.57713127  .00000111  00000-0  00000-0 0  9993
2 36112  64.2558 134.4247 0004494 197.9068 164.4079  2.13101542 88973
COSMOS 2459 (731)       
1 36400U 10007A   21141.12311831 -.00000051  00000-0  00000+0 0  9996
2 36400  65.9547  16.6204 0026297 351.4249 103.4171  2.13108280 87326
COSMOS 2461 (735)       
1 36401U 10007B   21141.12344434 -.00000051  00000-0  00000+0 0  9992
2 36401  65.9492  16.5853 0021579   9.9162  86.1031  2.13103872 87337
COSMOS 2460 (732)       
1 36402U 10007C   21141.23224693 -.00000050  00000-0  00000+0 0  9998
2 36402  65.9365  16.5386 0002042  39.3851  84.6281  2.13106546 87335
COSMOS 2464 (736)       
1 37139U 10041C   21140.62650484 -.00000007  00000-0  00000-0 0  9990
2 37139  64.0685 254.1294 0027734  12.1547 314.0889  2.13100740 83376
COSMOS 2471 (701K)      
1 37372U 11009A   21140.33804829 -.00000052  00000-0  00000+0 0  9995
2 37372  65.9323  16.4994 0014444 228.5133  85.4094  2.13051758 79587
COSMOS 2476 (744)       
1 37867U 11064A   21140.73794483  .00000113  00000-0  00000+0 0  9990
2 37867  64.5675 135.7352 0022388 242.2049  21.4409  2.13101893 74311
COSMOS 2477 (745)       
1 37868U 11064B   21141.00423441  .00000114  00000-0  00000+0 0  9996
2 37868  64.5762 135.7857 0019881 243.8410  42.4252  2.13101795 74277
COSMOS 2475 (743)       
1 37869U 11064C   21140.60338343  .00000113  00000-0  00000-0 0  9998
2 37869  64.5814 135.8082 0024336 260.9576  35.4427  2.13102030 74270
COSMOS 2485 (747)       
1 39155U 13019A   21140.57647087  .00000113  00000-0  00000+0 0  9993
2 39155  64.7336 136.0839 0022707 238.0518 306.1850  2.13101941 62787
COSMOS 2492 (754)       
1 39620U 14012A   21140.61712291 -.00000052  00000-0  00000-0 0  9993
2 39620  65.8255  16.2959 0013751 332.0789 278.1862  2.13103229 55731
COSMOS 2500 (755)       
1 40001U 14032A   21140.27883903 -.00000052  00000-0  00000-0 0  9991
2 40001  65.7634  16.1979 0004410 197.5393  12.9216  2.13102574 53944
COSMOS 2501 (702K)      
1 40315U 14075A   21140.12587693 -.00000004  00000-0  00000-0 0  9994
2 40315  63.7818 254.9648 0017024 207.8410  51.5050  2.13101451 50348
COSMOS 2514 (751)       
1 41330U 16008A   21140.39374049 -.00000052  00000-0  00000-0 0  9991
2 41330  65.5678  15.9823 0008091 213.2124 268.4767  2.13102927 41115
COSMOS 2516 (753)       
1 41554U 16032A   21141.14124538 -.00000009  00000-0  00000+0 0  9997
2 41554  64.0059 255.0953 0013212 214.0026  15.7502  2.13107005 38738
COSMOS 2522 (752)       
1 42939U 17055A   21141.02063241 -.00000009  00000-0  00000+0 0  9991
2 42939  64.2382 255.3789 0006687 241.6949 119.1152  2.13101903 28498
COSMOS 2527 (756)       
1 43508U 18053A   21140.71451865  .00000114  00000-0  00000-0 0  9998
2 43508  64.8992 135.9972 0009462 243.8067 274.2400  2.13102604 22773
COSMOS 2529 (757)       
1 43687U 18086A   21140.72101053 -.00000007  00000-0  00000-0 0  9996
2 43687  64.4539 255.6014 0008718 269.2670 177.2419  2.13102111 19799
COSMOS 2534 (758)       
1 44299U 19030A   21141.04666505 -.00000008  00000-0  00000+0 0  9990
2 44299  64.5262 255.4401 0011967 288.9570 182.2328  2.13102252 15447
COSMOS 2544 (759)       
1 44850U 19088A   21140.72722234  .00000114  00000-0  00000-0 0  9990
2 44850  64.8851 135.8577 0014297 266.8237 304.7557  2.13102426 11215
COSMOS 2545 (760)       
1 45358U 20018A   21140.39875898 -.00000054  00000-0  00000-0 0  9991
2 45358  64.8993  16.9140 0007275 257.6715 271.9622  2.13102787  9156
